CUTE-1 (CO-55)          
1 27844U 03031E   18286.58008700  .00000045  00000-0  39988-4 0  9995
2 27844  98.6878 293.4939 0010420  34.6290 325.5564 14.22137829792987
CUBESAT XI-IV (CO-57)   
1 27848U 03031J   18286.71323892  .00000031  00000-0  33724-4 0  9993
2 27848  98.6962 294.0611 0010461  44.3498 315.8515 14.21738935792906
CUBESAT XI 5            
1 28895U 05043F   18286.41455775  .00000158  00000-0  39066-4 0  9999
2 28895  97.9259  73.1981 0017926  58.6385 301.6569 14.63589888691178
CUTE-1.7+APD II (CO-65) 
1 32785U 08021C   18286.52246128  .00000241  00000-0  31724-4 0  9999
2 32785  97.5475 293.0533 0013365  12.8648 347.2908 14.88187669566701
AAUSAT-II               
1 32788U 08021F   18286.60284188  .00000790  00000-0  78223-4 0  9993
2 32788  97.5149 308.1384 0010671 317.1976  42.8413 14.94475639567766
DELFI-C3 (DO-64)        
1 32789U 08021G   18287.15991533  .00001925  00000-0  13476-3 0  9993
2 32789  97.4995 338.8941 0011045 248.3703 111.6348 15.06369122569692
SEEDS II (CO-66)        
1 32791U 08021J   18286.75274108  .00000261  00000-0  31944-4 0  9996
2 32791  97.5337 298.8825 0013040 350.6783   9.4191 14.90646464567174
SWISSCUBE               
1 35932U 09051B   18286.41643769  .00000158  00000-0  46763-4 0  9996
2 35932  98.5612  80.5304 0007279 199.2961 160.7961 14.56203754480646
BEESAT                  
1 35933U 09051C   18286.43544804  .00000120  00000-0  38176-4 0  9997
2 35933  98.5649  82.1715 0005244 210.6826 149.4065 14.56302454480757
ITUPSAT 1               
1 35935U 09051E   18286.41972489  .00000104  00000-0  35092-4 0  9997
2 35935  98.5761  82.4056 0007599 209.3266 150.7505 14.55474325480494
M-CUBED & EXP-1 PRIME   
1 37855U 11061F   18286.31007925  .00001552  00000-0  86066-4 0  9992
2 37855 101.7178  49.2769 0175414  92.5833 269.5471 15.04794666379410
STRAND-1                
1 39090U 13009E   18286.57197681  .00000007  00000-0  17918-4 0  9990
2 39090  98.5098 131.3548 0008330 311.3905  48.6564 14.35053212294782
AIST-2 (RS-43)          
1 39133U 13015D   18287.11300392  .00000205  00000-0  26855-4 0  9991
2 39133  64.8746 195.7983 0010272 210.0075 258.4017 15.04619051301109
SOMP                    
1 39134U 13015E   18286.87942355  .00001567  00000-0  82836-4 0  9998
2 39134  64.8624 102.8737 0004460 303.4245  56.6455 15.19481944302939
BEESAT-3                
1 39135U 13015F   18286.90065793  .00001208  00000-0  70788-4 0  9990
2 39135  64.8666 117.7210 0010669 236.9034 123.1068 15.16924931302655
BEESAT-2                
1 39136U 13015G   18286.05524013  .00001164  00000-0  69598-4 0  9990
2 39136  64.8677 123.5532 0011399 236.8950 123.1082 15.16380013302469
NEE-01 PEGASUS          
1 39151U 13018B   18287.23098376  .00000229  00000-0  37310-4 0  9997
2 39151  97.9756  20.4635 0015720 284.2676  75.6789 14.79950575295127
ESTCUBE 1               
1 39161U 13021C   18286.97776736  .00000123  00000-0  27460-4 0  9993
2 39161  98.0051  11.0103 0010529  43.9433 316.2613 14.72112038291928
POPACS 1                
1 39268U 13055D   18287.10347831  .00003018  00000-0  85382-4 0  9997
2 39268  81.0053 221.4540 0632484 235.4967 118.4943 14.35279035261501
POPACS 2                
1 39269U 13055E   18287.21467844  .00004356  00000-0  12832-3 0  9992
2 39269  81.0156 245.7622 0687806 298.6139  54.7504 14.22851583260061
POPACS 3                
1 39270U 13055F   18286.98525904  .00002578  00000-0  80989-4 0  9992
2 39270  81.0153 259.6691 0717171 339.4052  17.9494 14.15116609259159
ZACUBE-1 (TSHEPISOSAT)  
1 39417U 13066B   18286.55356596  .00000225  00000-0  34568-4 0  9998
2 39417  97.5798 308.8259 0060325 126.6057 234.0726 14.80991935264318
WNISAT-1                
1 39423U 13066H   18286.93147924  .00000153  00000-0  39956-4 0  9996
2 39423  97.7428 241.9318 0176010   6.9010 353.4551 14.52986008259475
GOMX 1                  
1 39430U 13066Q   18287.07729821  .00000316  00000-0  66590-4 0  9997
2 39430  97.7102 255.4695 0150894 315.8198  43.1034 14.59140502260492
CUBEBUG-2 (LO-74)       
1 39440U 13066AA  18286.59720612  .00000204  00000-0  35371-4 0  9992
2 39440  97.6007 294.7945 0080674 169.9232 190.3619 14.75732218262186
NEE-02 KRYSAOR          
1 39441U 13066AB  18286.55195221  .00000121  00000-0  24222-4 0  9992
2 39441  97.6018 292.7996 0081984 175.7210 184.4719 14.74820075263228
FUNCUBE-1 (AO-73)       
1 39444U 13066AE  18286.55405966  .00000278  00000-0  40558-4 0  9998
2 39444  97.5801 310.4993 0059521 121.6256 239.0784 14.81787471263181
UWE-3                   
1 39446U 13066AG  18286.55252702  .00000205  00000-0  33797-4 0  9995
2 39446  97.5887 301.3530 0070967 148.6872 211.8596 14.78266582262609
BRITE-TORONTO           
1 40020U 14033L   18287.14503495  .00000029  00000-0  13563-4 0  9997
2 40020  97.7703 139.3346 0086458 225.2697 134.1448 14.66524466231010
DUCHIFAT-1              
1 40021U 14033M   18286.35761259  .00000378  00000-0  44613-4 0  9991
2 40021  97.9136 205.2764 0013626 143.4174 216.7977 14.90410072234558
NANOSATC-BR1            
1 40024U 14033Q   18286.32333791  .00000467  00000-0  54694-4 0  9996
2 40024  97.9058 203.2430 0012859 145.9246 214.2799 14.89658749234464
QB50P1                  
1 40025U 14033R   18286.77574551  .00000351  00000-0  43497-4 0  9998
2 40025  97.9007 201.9030 0013047 149.2266 210.9719 14.88790302234432
QB50P2                  
1 40032U 14033Y   18286.76780976  .00000317  00000-0  40245-4 0  9995
2 40032  97.8953 200.4349 0012563 145.0294 215.1750 14.88331689234366
PERSEUS-M2              
1 40037U 14033AD  18286.83293929  .00000110  00000-0  18696-4 0  9991
2 40037  97.8924 197.6522 0014893 155.5945 204.5978 14.86390920234158
PERSEUS-M1              
1 40039U 14033AF  18286.61878494  .00000114  00000-0  19338-4 0  9993
2 40039  97.8917 196.7249 0014812 153.2967 206.9014 14.86012136233558
POLYITAN-1              
1 40042U 14033AJ  18287.19346370  .00000467  00000-0  56304-4 0  9999
2 40042  97.9084 202.5029 0015500 138.5232 221.7164 14.88479465234417
TIGRISAT                
1 40043U 14033AK  18287.15805565  .00000138  00000-0  27773-4 0  9995
2 40043  97.7894 160.0162 0060075 174.0564 186.1371 14.74182657232131
AEROCUBE 6A             
1 40045U 14033AM  18287.21311754  .00000386  00000-0  62994-4 0  9995
2 40045  97.8081 162.8112 0057843 167.6870 192.5768 14.75225439232075
AEROCUBE 6B             
1 40046U 14033AN  18286.60474078  .00000302  00000-0  50884-4 0  9990
2 40046  97.8038 162.0192 0057261 168.9622 191.2858 14.75211670231742
UKUBE-1                 
1 40074U 14037F   18286.96903199  .00000265  00000-0  39147-4 0  9992
2 40074  98.4042  70.3538 0003743 301.5694  58.5136 14.83877676230915
BRITE-PL 2              
1 40119U 14049B   18287.19115800  .00000105  00000-0  19056-4 0  9995
2 40119  97.9155  14.9090 0016359 312.4599  47.5231 14.84329024224954
FIREBIRD 4              
1 40378U 15003C   18287.06422377  .00001904  00000-0  80412-4 0  9991
2 40378  99.0817 212.4318 0129807 194.5449 165.2030 15.17715159204355
GRIFEX                  
1 40379U 15003D   18286.73618511  .00001323  00000-0  61437-4 0  9993
2 40379  99.0825 207.5705 0136788 210.1667 149.1633 15.14695269204045
EXOCUBE                 
1 40380U 15003E   18286.73440115  .00001123  00000-0  55171-4 0  9994
2 40380  99.0861 205.1108 0141316 218.5622 140.5444 15.12825742203878
TIANWANG 1C (TW-1C)     
1 40926U 15051B   18287.18235727  .00012109  00000-0  21002-3 0  9995
2 40926  97.1712 329.0294 0009627 191.9097 209.5245 15.50966136171748
TIANWANG 1A (TW-1A)     
1 40928U 15051D   18287.05557667  .00003668  00000-0  95951-4 0  9998
2 40928  97.1747 318.6701 0009877 249.7528 165.9898 15.39325425171064
EXACTVIEW 9             
1 40936U 15052G   18285.42506471  .00000831  00000-0  27302-4 0  9998
2 40936   6.0048  38.1604 0010845 218.0152 141.9210 14.76423090164321
ATHENOXAT 1             
1 41168U 15077C   18287.09818598  .00002544  00000-0  10195-3 0  9998
2 41168  14.9872 229.8349 0011520 253.8948 207.8004 15.13052792156411
GALASSIA                
1 41170U 15077E   18286.53577485  .00002131  00000-0  78281-4 0  9999
2 41170  14.9883 228.0120 0013141 266.2997  93.5821 15.13407926156383
VELOX 2                 
1 41171U 15077F   18287.08668573  .00001736  00000-0  62422-4 0  9990
2 41171  14.9909 249.1947 0008989 206.4737 153.5125 15.10835732156242
HORYU-IV                
1 41340U 16012D   18286.35519130  .00000581  00000-0  37611-4 0  9990
2 41340  31.0049 274.9630 0014098 185.3034 174.7453 15.01077995145665
E-ST@R-II               
1 41459U 16025D   18287.15737301  .00002100  00000-0  11182-3 0  9999
2 41459  98.1242 356.1065 0170947 109.4212 252.5607 15.04738391135315
AAUSAT 4                
1 41460U 16025E   18287.15019847  .00003734  00000-0  19261-3 0  9999
2 41460  98.1206 356.8040 0161837 104.5005 257.4297 15.06323507135399
DIWATA-1                
1 41463U 98067HT  18287.03841642  .00018542  00000-0  13683-3 0  9996
2 41463  51.6371  84.4304 0001418 181.6045 282.1690 15.73058856140691
BEESAT-4                
1 41619U 16040W   18286.12545996  .00001699  00000-0  76354-4 0  9992
2 41619  97.4027 347.5815 0011853 168.7880 191.3623 15.22443775116037
CANX-7                  
1 41788U 16059F   18287.15209437  .00007638  00000-0  12478-2 0  9994
2 41788  98.2202 354.4942 0030509  84.1357 276.2756 14.70846193109580
ALSAT 1N                
1 41789U 16059G   18287.20918282  .00000106  00000-0  29214-4 0  9997
2 41789  98.1064 348.2341 0029605  73.9082 286.5384 14.64186155109439
RAVAN                   
1 41849U 16067B   18286.79023668  .00000793  00000-0  72450-4 0  9993
2 41849  97.9233  17.3013 0009791 127.0721 233.1398 14.97934430104886
CELTEE 1                
1 41850U 16067C   18286.81481689  .00000428  00000-0  42590-4 0  9996
2 41850  97.9227  16.5622 0010197 123.1023 237.1178 14.96883251104841
